[{"OBJECT_NAME":"FLOCK 4BE-24","OBJECT_ID":"2024-149AP","EPOCH":"2026-04-26T18:38:17.295648","MEAN_MOTION":15.41142572,"ECCENTRICITY":0.00054722,"INCLINATION":97.3721,"RA_OF_ASC_NODE":200.6439,"ARG_OF_PERICENTER":115.507,"MEAN_ANOMALY":244.6743,"EPHEMERIS_TYPE":0,"CLASSIFICATION_TYPE":"U","NORAD_CAT_ID":60505,"ELEMENT_SET_NO":999,"REV_AT_EPOCH":9444,"BSTAR":0.00058961313,"MEAN_MOTION_DOT":0.00024399,"MEAN_MOTION_DDOT":0},{"OBJECT_NAME":"TANAGER-1","OBJECT_ID":"2024-149AR","EPOCH":"2026-04-26T18:54:49.067424","MEAN_MOTION":15.44294604,"ECCENTRICITY":0.00074118,"INCLINATION":97.3454,"RA_OF_ASC_NODE":210.7814,"ARG_OF_PERICENTER":127.0843,"MEAN_ANOMALY":233.1084,"EPHEMERIS_TYPE":0,"CLASSIFICATION_TYPE":"U","NORAD_CAT_ID":60507,"ELEMENT_SET_NO":999,"REV_AT_EPOCH":9510,"BSTAR":0.00035407047,"MEAN_MOTION_DOT":0.00016239,"MEAN_MOTION_DDOT":0},{"OBJECT_NAME":"FLOCK 4BE-29","OBJECT_ID":"2024-149AT","EPOCH":"2026-04-26T18:17:30.607584","MEAN_MOTION":15.42440443,"ECCENTRICITY":0.00042615,"INCLINATION":97.3807,"RA_OF_ASC_NODE":201.9303,"ARG_OF_PERICENTER":120.2908,"MEAN_ANOMALY":239.8761,"EPHEMERIS_TYPE":0,"CLASSIFICATION_TYPE":"U","NORAD_CAT_ID":60509,"ELEMENT_SET_NO":999,"REV_AT_EPOCH":9448,"BSTAR":0.00053521262,"MEAN_MOTION_DOT":0.00023109,"MEAN_MOTION_DDOT":0},{"OBJECT_NAME":"FLOCK 4BE-2","OBJECT_ID":"2024-149AV","EPOCH":"2026-04-26T19:12:41.495328","MEAN_MOTION":15.47637462,"ECCENTRICITY":0.0004713,"INCLINATION":97.3816,"RA_OF_ASC_NODE":202.8471,"ARG_OF_PERICENTER":121.011,"MEAN_ANOMALY":239.1603,"EPHEMERIS_TYPE":0,"CLASSIFICATION_TYPE":"U","NORAD_CAT_ID":60511,"ELEMENT_SET_NO":999,"REV_AT_EPOCH":9454,"BSTAR":0.0009107975,"MEAN_MOTION_DOT":0.00047144,"MEAN_MOTION_DDOT":0},{"OBJECT_NAME":"FLOCK 4BE-13","OBJECT_ID":"2024-149AW","EPOCH":"2026-04-26T19:08:59.287488","MEAN_MOTION":15.40473356,"ECCENTRICITY":0.0005561,"INCLINATION":97.3721,"RA_OF_ASC_NODE":200.7318,"ARG_OF_PERICENTER":99.7925,"MEAN_ANOMALY":260.395,"EPHEMERIS_TYPE":0,"CLASSIFICATION_TYPE":"U","NORAD_CAT_ID":60512,"ELEMENT_SET_NO":999,"REV_AT_EPOCH":9445,"BSTAR":0.0003998247,"MEAN_MOTION_DOT":0.0001614,"MEAN_MOTION_DDOT":0},{"OBJECT_NAME":"FLOCK 4BE-27","OBJECT_ID":"2024-149AX","EPOCH":"2026-04-26T17:26:04.596576","MEAN_MOTION":15.33541805,"ECCENTRICITY":0.0005558,"INCLINATION":97.3827,"RA_OF_ASC_NODE":198.5891,"ARG_OF_PERICENTER":120.4476,"MEAN_ANOMALY":239.7316,"EPHEMERIS_TYPE":0,"CLASSIFICATION_TYPE":"U","NORAD_CAT_ID":60513,"ELEMENT_SET_NO":999,"REV_AT_EPOCH":9425,"BSTAR":0.0003514091,"MEAN_MOTION_DOT":0.00011325,"MEAN_MOTION_DDOT":0},{"OBJECT_NAME":"FLOCK 4BE-9","OBJECT_ID":"2024-149AY","EPOCH":"2026-04-26T16:37:53.560992","MEAN_MOTION":15.39229455,"ECCENTRICITY":0.00044692,"INCLINATION":97.3791,"RA_OF_ASC_NODE":200.5285,"ARG_OF_PERICENTER":122.1278,"MEAN_ANOMALY":238.0402,"EPHEMERIS_TYPE":0,"CLASSIFICATION_TYPE":"U","NORAD_CAT_ID":60514,"ELEMENT_SET_NO":999,"REV_AT_EPOCH":9439,"BSTAR":0.00049814366,"MEAN_MOTION_DOT":0.00019327,"MEAN_MOTION_DDOT":0},{"OBJECT_NAME":"FLOCK 4BE-6","OBJECT_ID":"2024-149BA","EPOCH":"2026-04-26T17:57:45.315360","MEAN_MOTION":15.38157143,"ECCENTRICITY":0.0005215,"INCLINATION":97.3789,"RA_OF_ASC_NODE":200.0343,"ARG_OF_PERICENTER":120.4094,"MEAN_ANOMALY":239.7667,"EPHEMERIS_TYPE":0,"CLASSIFICATION_TYPE":"U","NORAD_CAT_ID":60516,"ELEMENT_SET_NO":999,"REV_AT_EPOCH":9436,"BSTAR":0.00045324,"MEAN_MOTION_DOT":0.0001697,"MEAN_MOTION_DDOT":0},{"OBJECT_NAME":"FLOCK 4BE-14","OBJECT_ID":"2024-149BB","EPOCH":"2026-04-26T18:37:48.712800","MEAN_MOTION":15.39393746,"ECCENTRICITY":0.00061496,"INCLINATION":97.3696,"RA_OF_ASC_NODE":200.1596,"ARG_OF_PERICENTER":120.0134,"MEAN_ANOMALY":240.1722,"EPHEMERIS_TYPE":0,"CLASSIFICATION_TYPE":"U","NORAD_CAT_ID":60517,"ELEMENT_SET_NO":999,"REV_AT_EPOCH":9441,"BSTAR":0.00055048431,"MEAN_MOTION_DOT":0.00021494,"MEAN_MOTION_DDOT":0},{"OBJECT_NAME":"FLOCK 4BE-1","OBJECT_ID":"2024-149BC","EPOCH":"2026-04-26T18:41:18.050496","MEAN_MOTION":15.40878447,"ECCENTRICITY":0.00057257,"INCLINATION":97.3781,"RA_OF_ASC_NODE":201.2613,"ARG_OF_PERICENTER":120.3857,"MEAN_ANOMALY":239.7956,"EPHEMERIS_TYPE":0,"CLASSIFICATION_TYPE":"U","NORAD_CAT_ID":60518,"ELEMENT_SET_NO":999,"REV_AT_EPOCH":9445,"BSTAR":0.00053161231,"MEAN_MOTION_DOT":0.00021793,"MEAN_MOTION_DDOT":0},{"OBJECT_NAME":"FLOCK 4BE-28","OBJECT_ID":"2024-149BD","EPOCH":"2026-04-26T19:17:00.557952","MEAN_MOTION":15.43082804,"ECCENTRICITY":0.00057962,"INCLINATION":97.3746,"RA_OF_ASC_NODE":201.8553,"ARG_OF_PERICENTER":116.0023,"MEAN_ANOMALY":244.1823,"EPHEMERIS_TYPE":0,"CLASSIFICATION_TYPE":"U","NORAD_CAT_ID":60519,"ELEMENT_SET_NO":999,"REV_AT_EPOCH":9451,"BSTAR":0.00046161357,"MEAN_MOTION_DOT":0.00020351,"MEAN_MOTION_DDOT":0},{"OBJECT_NAME":"FLOCK 4BE-35","OBJECT_ID":"2024-149CU","EPOCH":"2026-04-26T20:05:38.374080","MEAN_MOTION":15.54311538,"ECCENTRICITY":0.00041191,"INCLINATION":97.3715,"RA_OF_ASC_NODE":201.1228,"ARG_OF_PERICENTER":153.4042,"MEAN_ANOMALY":206.7424,"EPHEMERIS_TYPE":0,"CLASSIFICATION_TYPE":"U","NORAD_CAT_ID":60558,"ELEMENT_SET_NO":999,"REV_AT_EPOCH":9445,"BSTAR":0.0020238891,"MEAN_MOTION_DOT":0.00134296,"MEAN_MOTION_DDOT":0},{"OBJECT_NAME":"FLOCK 4BE-5","OBJECT_ID":"2024-149CV","EPOCH":"2026-04-26T17:51:27.565920","MEAN_MOTION":15.38766097,"ECCENTRICITY":0.00048166,"INCLINATION":97.3842,"RA_OF_ASC_NODE":200.31,"ARG_OF_PERICENTER":121.4458,"MEAN_ANOMALY":238.7258,"EPHEMERIS_TYPE":0,"CLASSIFICATION_TYPE":"U","NORAD_CAT_ID":60559,"ELEMENT_SET_NO":999,"REV_AT_EPOCH":9436,"BSTAR":0.00049554815,"MEAN_MOTION_DOT":0.00018937,"MEAN_MOTION_DDOT":0},{"OBJECT_NAME":"FLOCK 4BE-12","OBJECT_ID":"2024-149CW","EPOCH":"2026-04-26T19:03:30.375648","MEAN_MOTION":15.60041167,"ECCENTRICITY":0.00044222,"INCLINATION":97.3677,"RA_OF_ASC_NODE":202.0892,"ARG_OF_PERICENTER":170.3754,"MEAN_ANOMALY":189.7588,"EPHEMERIS_TYPE":0,"CLASSIFICATION_TYPE":"U","NORAD_CAT_ID":60560,"ELEMENT_SET_NO":999,"REV_AT_EPOCH":9453,"BSTAR":0.0026400714,"MEAN_MOTION_DOT":0.00218998,"MEAN_MOTION_DDOT":0},{"OBJECT_NAME":"FLOCK 4BE-3","OBJECT_ID":"2024-149CX","EPOCH":"2026-04-26T18:36:02.204928","MEAN_MOTION":15.39955206,"ECCENTRICITY":0.00058751,"INCLINATION":97.3698,"RA_OF_ASC_NODE":200.2581,"ARG_OF_PERICENTER":115.1745,"MEAN_ANOMALY":245.0111,"EPHEMERIS_TYPE":0,"CLASSIFICATION_TYPE":"U","NORAD_CAT_ID":60561,"ELEMENT_SET_NO":999,"REV_AT_EPOCH":9442,"BSTAR":0.00057297217,"MEAN_MOTION_DOT":0.00022794,"MEAN_MOTION_DDOT":0},{"OBJECT_NAME":"FLOCK 4BE-19","OBJECT_ID":"2024-149CZ","EPOCH":"2026-04-26T17:02:00.227904","MEAN_MOTION":15.42358054,"ECCENTRICITY":0.00057159,"INCLINATION":97.374,"RA_OF_ASC_NODE":201.4939,"ARG_OF_PERICENTER":116.9266,"MEAN_ANOMALY":243.2566,"EPHEMERIS_TYPE":0,"CLASSIFICATION_TYPE":"U","NORAD_CAT_ID":60563,"ELEMENT_SET_NO":999,"REV_AT_EPOCH":9448,"BSTAR":0.00054545084,"MEAN_MOTION_DOT":0.00023495,"MEAN_MOTION_DDOT":0}]
