FLOCK 4BE-24            
1 60505U 24149AP  26116.77658907  .00024399  00000+0  58961-3 0  9999
2 60505  97.3721 200.6439 0005472 115.5070 244.6743 15.41142572 94441
TANAGER-1               
1 60507U 24149AR  26116.78806791  .00016239  00000+0  35407-3 0  9992
2 60507  97.3454 210.7814 0007411 127.0843 233.1084 15.44294604 95108
FLOCK 4BE-29            
1 60509U 24149AT  26116.76215981  .00023109  00000+0  53521-3 0  9998
2 60509  97.3807 201.9303 0004261 120.2908 239.8761 15.42440443 94481
FLOCK 4BE-2             
1 60511U 24149AV  26116.80048027  .00047144  00000+0  91080-3 0  9998
2 60511  97.3816 202.8471 0004713 121.0110 239.1603 15.47637462 94545
FLOCK 4BE-13            
1 60512U 24149AW  26116.79790842  .00016140  00000+0  39982-3 0  9991
2 60512  97.3721 200.7318 0005561  99.7925 260.3950 15.40473356 94459
FLOCK 4BE-27            
1 60513U 24149AX  26116.72644209  .00011325  00000+0  35141-3 0  9993
2 60513  97.3827 198.5891 0005558 120.4476 239.7316 15.33541805 94257
FLOCK 4BE-9             
1 60514U 24149AY  26116.69298103  .00019327  00000+0  49814-3 0  9990
2 60514  97.3791 200.5285 0004469 122.1278 238.0402 15.39229455 94391
FLOCK 4BE-6             
1 60516U 24149BA  26116.74844115  .00016970  00000+0  45324-3 0  9991
2 60516  97.3789 200.0343 0005215 120.4094 239.7667 15.38157143 94368
FLOCK 4BE-14            
1 60517U 24149BB  26116.77625825  .00021494  00000+0  55048-3 0  9991
2 60517  97.3696 200.1596 0006149 120.0134 240.1722 15.39393746 94411
FLOCK 4BE-1             
1 60518U 24149BC  26116.77868114  .00021793  00000+0  53161-3 0  9998
2 60518  97.3781 201.2613 0005725 120.3857 239.7956 15.40878447 94458
FLOCK 4BE-28            
1 60519U 24149BD  26116.80347868  .00020351  00000+0  46161-3 0  9992
2 60519  97.3746 201.8553 0005796 116.0023 244.1823 15.43082804 94511
FLOCK 4BE-35            
1 60558U 24149CU  26116.83724970  .00134296  00000+0  20239-2 0  9992
2 60558  97.3715 201.1228 0004119 153.4042 206.7424 15.54311538 94451
FLOCK 4BE-5             
1 60559U 24149CV  26116.74406905  .00018937  00000+0  49555-3 0  9994
2 60559  97.3842 200.3100 0004816 121.4458 238.7258 15.38766097 94369
FLOCK 4BE-12            
1 60560U 24149CW  26116.79410157  .00218998  00000+0  26401-2 0  9998
2 60560  97.3677 202.0892 0004422 170.3754 189.7588 15.60041167 94538
FLOCK 4BE-3             
1 60561U 24149CX  26116.77502552  .00022794  00000+0  57297-3 0  9993
2 60561  97.3698 200.2581 0005875 115.1745 245.0111 15.39955206 94427
FLOCK 4BE-19            
1 60563U 24149CZ  26116.70972486  .00023495  00000+0  54545-3 0  9997
2 60563  97.3740 201.4939 0005715 116.9266 243.2566 15.42358054 94489
